QIANFAN-17              
1 60395U 24140S   25337.77204352  .00000092  00000+0  12344-3 0  9991
2 60395  88.9761 300.3617 0013229 228.0943 131.9081 13.50974935 66921
QIANFAN-18              
1 60396U 24140T   25337.82552566  .00000111  00000+0  15351-3 0  9994
2 60396  88.9754 299.8904 0012949 208.3419 151.7029 13.50975031 66326
QIANFAN-19              
1 61552U 24185A   25337.74087095  .00000722  00000+0  37114-3 0  9998
2 61552  88.9823  78.9705 0006021 350.3471   9.7599 14.14281274 68396
QIANFAN-20              
1 61553U 24185B   25337.80965032  .00000767  00000+0  43680-3 0  9996
2 61553  88.9820  79.2775 0006443  33.9153 326.2442 14.08827343 68237
QIANFAN-21              
1 61554U 24185C   25337.81759185  .00001031  00000+0  45484-3 0  9997
2 61554  88.9737  78.0227 0011633  42.2459 317.9627 14.22587846 68704
QIANFAN-22              
1 61555U 24185D   25337.76742064  .00000266  00000+0  21839-3 0  9997
2 61555  88.9804  80.2274 0007254  38.9064 321.2628 13.86297443 67691
QIANFAN-23              
1 61556U 24185E   25337.79959642  .00000719  00000+0  35580-3 0  9994
2 61556  88.9814  78.7777 0007166   1.0520 359.0682 14.16278242 68480
QIANFAN-24              
1 61557U 24185F   25337.75750617  .00000930  00000+0  40065-3 0  9991
2 61557  88.9796  78.2022 0008270 339.0863  20.9990 14.23789745 68747
